{
    "links": {
        "self": "http://www.neowsapp.com/rest/v1/neo/3840767?api_key=iIulBulltgU6a56xZRHN4H3l9WmuAYTsLGpBGhQ2"
    },
    "id": "3840767",
    "neo_reference_id": "3840767",
    "name": "(2019 GL)",
    "designation": "2019 GL",
    "nasa_jpl_url": "http://ssd.jpl.nasa.gov/sbdb.cgi?sstr=3840767",
    "absolute_magnitude_h": 23.3,
    "estimated_diameter": {
        "kilometers": {
            "estimated_diameter_min": 0.058150704,
            "estimated_diameter_max": 0.130028927
        },
        "meters": {
            "estimated_diameter_min": 58.1507039646,
            "estimated_diameter_max": 130.0289270043
        },
        "miles": {
            "estimated_diameter_min": 0.0361331611,
            "estimated_diameter_max": 0.0807962044
        },
        "feet": {
            "estimated_diameter_min": 190.7831555951,
            "estimated_diameter_max": 426.6041048727
        }
    },
    "is_potentially_hazardous_asteroid": false,
    "close_approach_data": [
        {
            "close_approach_date": "2019-03-29",
            "close_approach_date_full": "2019-Mar-29 21:48",
            "epoch_date_close_approach": 1553896080000,
            "relative_velocity": {
                "kilometers_per_second": "11.0754871956",
                "kilometers_per_hour": "39871.7539040671",
                "miles_per_hour": "24774.7573077799"
            },
            "miss_distance": {
                "astronomical": "0.048038533",
                "lunar": "18.686989337",
                "kilometers": "7186462.21472471",
                "miles": "4465460.554072598"
            },
            "orbiting_body": "Earth"
        },
        {
            "close_approach_date": "2065-04-10",
            "close_approach_date_full": "2065-Apr-10 03:31",
            "epoch_date_close_approach": 3006559860000,
            "relative_velocity": {
                "kilometers_per_second": "14.8497101714",
                "kilometers_per_hour": "53458.9566171862",
                "miles_per_hour": "33217.3166824955"
            },
            "miss_distance": {
                "astronomical": "0.15297426",
                "lunar": "59.50698714",
                "kilometers": "22884623.4608262",
                "miles": "14219845.63555356"
            },
            "orbiting_body": "Earth"
        },
        {
            "close_approach_date": "2069-11-23",
            "close_approach_date_full": "2069-Nov-23 22:14",
            "epoch_date_close_approach": 3152470440000,
            "relative_velocity": {
                "kilometers_per_second": "24.0873945898",
                "kilometers_per_hour": "86714.6205231724",
                "miles_per_hour": "53881.0929578567"
            },
            "miss_distance": {
                "astronomical": "0.4562380368",
                "lunar": "177.4765963152",
                "kilometers": "68252238.518261616",
                "miles": "42409974.4386016608"
            },
            "orbiting_body": "Earth"
        },
        {
            "close_approach_date": "2174-04-19",
            "close_approach_date_full": "2174-Apr-19 12:50",
            "epoch_date_close_approach": 6447041400000,
            "relative_velocity": {
                "kilometers_per_second": "18.1319702382",
                "kilometers_per_hour": "65275.0928575423",
                "miles_per_hour": "40559.4042258434"
            },
            "miss_distance": {
                "astronomical": "0.2623868423",
                "lunar": "102.0684816547",
                "kilometers": "39252512.724105901",
                "miles": "24390380.4097913938"
            },
            "orbiting_body": "Earth"
        }
    ],
    "orbital_data": {
        "orbit_id": "13",
        "orbit_determination_date": "2019-05-06 06:54:56",
        "first_observation_date": "2019-04-02",
        "last_observation_date": "2019-05-05",
        "data_arc_in_days": 33,
        "observations_used": 84,
        "orbit_uncertainty": "7",
        "minimum_orbit_intersection": ".0333623",
        "jupiter_tisserand_invariant": "3.899",
        "epoch_osculation": "2459000.5",
        "eccentricity": ".5045919781125163",
        "semi_major_axis": "1.804360847447602",
        "inclination": "2.889601274254312",
        "ascending_node_longitude": "231.6609092495679",
        "orbital_period": "885.2858426898546",
        "perihelion_distance": ".8938948382052402",
        "perihelion_argument": "265.9943042272889",
        "aphelion_distance": "2.714826856689964",
        "perihelion_time": "2459420.298559426031",
        "mean_anomaly": "189.2896213790281",
        "mean_motion": ".4066483192662103",
        "equinox": "J2000",
        "orbit_class": {
            "orbit_class_type": "APO",
            "orbit_class_description": "Near-Earth asteroid orbits which cross the Earth’s orbit similar to that of 1862 Apollo",
            "orbit_class_range": "a (semi-major axis) > 1.0 AU; q (perihelion) < 1.017 AU"
        }
    },
    "is_sentry_object": false
}